start=new Date('2022-12-24T00:00:00.000Z').valueOf();
sats=[{"TLE_LINE1":"1 52474U 22049Z   22357.47425367  .00002624  00000-0  18299-3 0  9992","EPOCH":"2022-12-23T11:22:55.517088","RCS_SIZE":"LARGE","COUNTRY_CODE":"US","OBJECT_TYPE":"PAYLOAD","PERIAPSIS":"537.887","FILE":"3720302","CLASSIFICATION_TYPE":"U","TLE_LINE2":"2 52474  53.2183 271.3968 0002742  29.6244 330.4903 15.08827418 35424","MEAN_MOTION_DOT":"0.00002624","SITE":"AFETR","SEMIMAJOR_AXIS":"6917.919","OBJECT_ID":"2022-049Z","MEAN_ANOMALY":"330.4903","LAUNCH_DATE":"2022-05-06","OBJECT_NAME":"STARLINK-3855","GP_ID":"221277586","ELEMENT_SET_NO":"999","MEAN_MOTION":"15.08827418","ECCENTRICITY":"0.00027420","APOAPSIS":"541.681","INCLINATION":"53.2183","DECAY_DATE":null,"REF_FRAME":"TEME","NORAD_CAT_ID":"52474","EPHEMERIS_TYPE":"0","RA_OF_ASC_NODE":"271.3968","ARG_OF_PERICENTER":"29.6244","MEAN_MOTION_DDOT":"0.0000000000000","MEAN_ELEMENT_THEORY":"SGP4","REV_AT_EPOCH":"3542","BSTAR":"0.00018299000000","PERIOD":"95.438","TIME_SYSTEM":"UTC","CENTER_NAME":"EARTH"},{"PERIAPSIS":"538.028","OBJECT_TYPE":"PAYLOAD","FILE":"3720616","TLE_LINE1":"1 52475U 22049AA  22358.05204718  .00017054  00000-0  10859-2 0  9999","RCS_SIZE":"LARGE","EPOCH":"2022-12-24T01:14:56.876352","COUNTRY_CODE":"US","TLE_LINE2":"2 52475  53.2153 278.8142 0002320  47.4501 312.6686 15.08876659 35537","MEAN_MOTION_DOT":"0.00017054","CLASSIFICATION_TYPE":"U","OBJECT_ID":"2022-049AA","SEMIMAJOR_AXIS":"6917.768","SITE":"AFETR","LAUNCH_DATE":"2022-05-06","OBJECT_NAME":"STARLINK-3882","MEAN_ANOMALY":"312.6686","MEAN_MOTION":"15.08876659","ELEMENT_SET_NO":"999","ECCENTRICITY":"0.00023200","APOAPSIS":"541.238","GP_ID":"221311814","REF_FRAME":"TEME","EPHEMERIS_TYPE":"0","NORAD_CAT_ID":"52475","INCLINATION":"53.2153","DECAY_DATE":null,"MEAN_MOTION_DDOT":"0.0000000000000","MEAN_ELEMENT_THEORY":"SGP4","REV_AT_EPOCH":"3553","RA_OF_ASC_NODE":"278.8142","ARG_OF_PERICENTER":"47.4501","PERIOD":"95.435","CENTER_NAME":"EARTH","TIME_SYSTEM":"UTC","BSTAR":"0.00108590000000"},{"REV_AT_EPOCH":"3666","MEAN_MOTION_DDOT":"0.0000000000000","MEAN_ELEMENT_THEORY":"SGP4","ARG_OF_PERICENTER":"28.7275","RA_OF_ASC_NODE":"271.4139","CENTER_NAME":"EARTH","TIME_SYSTEM":"UTC","PERIOD":"95.439","BSTAR":"0.00016860000000","ECCENTRICITY":"0.00027440","APOAPSIS":"541.700","ELEMENT_SET_NO":"999","MEAN_MOTION":"15.08821687","GP_ID":"221276594","REF_FRAME":"TEME","NORAD_CAT_ID":"52476","EPHEMERIS_TYPE":"0","DECAY_DATE":null,"INCLINATION":"53.2183","OBJECT_ID":"2022-049AB","SEMIMAJOR_AXIS":"6917.936","SITE":"AFETR","LAUNCH_DATE":"2022-05-06","OBJECT_NAME":"STARLINK-3835","MEAN_ANOMALY":"331.3868","FILE":"3720302","OBJECT_TYPE":"PAYLOAD","PERIAPSIS":"537.903","EPOCH":"2022-12-23T11:17:37.639392","RCS_SIZE":"LARGE","COUNTRY_CODE":"US","TLE_LINE1":"1 52476U 22049AB  22357.47057453  .00002395  00000-0  16860-3 0  9998","MEAN_MOTION_DOT":"0.00002395","TLE_LINE2":"2 52476  53.2183 271.4139 0002744  28.7275 331.3868 15.08821687 36662","CLASSIFICATION_TYPE":"U"},{"DECAY_DATE":null,"INCLINATION":"53.2188","REF_FRAME":"TEME","NORAD_CAT_ID":"52477","EPHEMERIS_TYPE":"0","GP_ID":"221276839","ECCENTRICITY":"0.00028120","APOAPSIS":"541.713","ELEMENT_SET_NO":"999","MEAN_MOTION":"15.08832662","BSTAR":"-0.00000929550000","CENTER_NAME":"EARTH","TIME_SYSTEM":"UTC","PERIOD":"95.438","ARG_OF_PERICENTER":"28.6696","RA_OF_ASC_NODE":"271.3833","REV_AT_EPOCH":"3666","MEAN_MOTION_DDOT":"0.0000000000000","MEAN_ELEMENT_THEORY":"SGP4","CLASSIFICATION_TYPE":"U","MEAN_MOTION_DOT":"-0.00000436","TLE_LINE2":"2 52477  53.2188 271.3833 0002812  28.6696 331.4450 15.08832662 36663","RCS_SIZE":"LARGE","EPOCH":"2022-12-23T11:28:13.556352","COUNTRY_CODE":"US","TLE_LINE1":"1 52477U 22049AC  22357.47793468 -.00000436  00000-0 -92955-5 0  9999","FILE":"3720302","OBJECT_TYPE":"PAYLOAD","PERIAPSIS":"537.823","MEAN_ANOMALY":"331.4450","LAUNCH_DATE":"2022-05-06","OBJECT_NAME":"STARLINK-3860","SITE":"AFETR","SEMIMAJOR_AXIS":"6917.903","OBJECT_ID":"2022-049AC"},{"TLE_LINE2":"2 52478  53.2141 280.0443 0001764  57.2971 302.8191 15.08843651 36570","MEAN_MOTION_DOT":"0.00003363","CLASSIFICATION_TYPE":"U","OBJECT_TYPE":"PAYLOAD","PERIAPSIS":"538.514","FILE":"3720518","TLE_LINE1":"1 52478U 22049AD  22357.77877449  .00003363  00000-0  22926-3 0  9994","RCS_SIZE":"LARGE","EPOCH":"2022-12-23T18:41:26.115936","COUNTRY_CODE":"US","LAUNCH_DATE":"2022-05-06","OBJECT_NAME":"STARLINK-3825","MEAN_ANOMALY":"302.8191","OBJECT_ID":"2022-049AD","SEMIMAJOR_AXIS":"6917.869","SITE":"AFETR","REF_FRAME":"TEME","EPHEMERIS_TYPE":"0","NORAD_CAT_ID":"52478","INCLINATION":"53.2141","DECAY_DATE":null,"ELEMENT_SET_NO":"999","MEAN_MOTION":"15.08843651","ECCENTRICITY":"0.00017640","APOAPSIS":"540.955","GP_ID":"221307464","PERIOD":"95.437","CENTER_NAME":"EARTH","TIME_SYSTEM":"UTC","BSTAR":"0.00022926000000","MEAN_MOTION_DDOT":"0.0000000000000","MEAN_ELEMENT_THEORY":"SGP4","REV_AT_EPOCH":"3657","RA_OF_ASC_NODE":"280.0443","ARG_OF_PERICENTER":"57.2971"},{"REV_AT_EPOCH":"3567","MEAN_MOTION_DDOT":"0.0000000000000","MEAN_ELEMENT_THEORY":"SGP4","ARG_OF_PERICENTER":"32.6961","RA_OF_ASC_NODE":"268.7705","CENTER_NAME":"EARTH","TIME_SYSTEM":"UTC","PERIOD":"95.437","BSTAR":"0.00007929800000","ECCENTRICITY":"0.00026120","APOAPSIS":"541.536","MEAN_MOTION":"15.08845194","ELEMENT_SET_NO":"999","GP_ID":"221311816","REF_FRAME":"TEME","NORAD_CAT_ID":"52479","EPHEMERIS_TYPE":"0","DECAY_DATE":null,"INCLINATION":"53.2187","OBJECT_ID":"2022-049AE","SEMIMAJOR_AXIS":"6917.865","SITE":"AFETR","LAUNCH_DATE":"2022-05-06","OBJECT_NAME":"STARLINK-3878","MEAN_ANOMALY":"327.4192","FILE":"3720616","OBJECT_TYPE":"PAYLOAD","PERIAPSIS":"537.923","EPOCH":"2022-12-24T01:25:29.147232","RCS_SIZE":"LARGE","COUNTRY_CODE":"US","TLE_LINE1":"1 52479U 22049AE  22358.05936513  .00000974  00000-0  79298-4 0  9995","MEAN_MOTION_DOT":"0.00000974","TLE_LINE2":"2 52479  53.2187 268.7705 0002612  32.6961 327.4192 15.08845194 35672","CLASSIFICATION_TYPE":"U"},{"TLE_LINE1":"1 52480U 22049AF  22357.51013753  .00003135  00000-0  21505-3 0  9998","EPOCH":"2022-12-23T12:14:35.882592","RCS_SIZE":"LARGE","COUNTRY_CODE":"US","OBJECT_TYPE":"PAYLOAD","PERIAPSIS":"538.132","FILE":"3720302","CLASSIFICATION_TYPE":"U","TLE_LINE2":"2 52480  53.2174 281.2466 0002371  37.1274 322.9881 15.08831194 35291","MEAN_MOTION_DOT":"0.00003135","SITE":"AFETR","SEMIMAJOR_AXIS":"6917.907","OBJECT_ID":"2022-049AF","MEAN_ANOMALY":"322.9881","LAUNCH_DATE":"2022-05-06","OBJECT_NAME":"STARLINK-3839","GP_ID":"221276095","ELEMENT_SET_NO":"999","MEAN_MOTION":"15.08831194","ECCENTRICITY":"0.00023710","APOAPSIS":"541.413","INCLINATION":"53.2174","DECAY_DATE":null,"REF_FRAME":"TEME","NORAD_CAT_ID":"52480","EPHEMERIS_TYPE":"0","RA_OF_ASC_NODE":"281.2466","ARG_OF_PERICENTER":"37.1274","MEAN_MOTION_DDOT":"0.0000000000000","MEAN_ELEMENT_THEORY":"SGP4","REV_AT_EPOCH":"3529","BSTAR":"0.00021505000000","PERIOD":"95.438","CENTER_NAME":"EARTH","TIME_SYSTEM":"UTC"},{"OBJECT_ID":"2022-049AG","SITE":"AFETR","SEMIMAJOR_AXIS":"6917.868","LAUNCH_DATE":"2022-05-06","OBJECT_NAME":"STARLINK-3842","MEAN_ANOMALY":"319.5243","FILE":"3720616","PERIAPSIS":"538.309","OBJECT_TYPE":"PAYLOAD","RCS_SIZE":"LARGE","EPOCH":"2022-12-24T01:08:16.951488","COUNTRY_CODE":"US","TLE_LINE1":"1 52481U 22049AG  22358.04741842  .00006340  00000-0  41601-3 0  9995","MEAN_MOTION_DOT":"0.00006340","TLE_LINE2":"2 52481  53.2173 278.8406 0002058  40.5903 319.5243 15.08844039 35539","CLASSIFICATION_TYPE":"U","REV_AT_EPOCH":"3553","MEAN_MOTION_DDOT":"0.0000000000000","MEAN_ELEMENT_THEORY":"SGP4","ARG_OF_PERICENTER":"40.5903","RA_OF_ASC_NODE":"278.8406","CENTER_NAME":"EARTH","TIME_SYSTEM":"UTC","PERIOD":"95.437","BSTAR":"0.00041601000000","ECCENTRICITY":"0.00020580","APOAPSIS":"541.157","MEAN_MOTION":"15.08844039","ELEMENT_SET_NO":"999","GP_ID":"221312063","REF_FRAME":"TEME","EPHEMERIS_TYPE":"0","NORAD_CAT_ID":"52481","DECAY_DATE":null,"INCLINATION":"53.2173"},{"BSTAR":"0.00007145900000","PERIOD":"95.438","TIME_SYSTEM":"UTC","CENTER_NAME":"EARTH","RA_OF_ASC_NODE":"268.7969","ARG_OF_PERICENTER":"37.0512","MEAN_ELEMENT_THEORY":"SGP4","MEAN_MOTION_DDOT":"0.0000000000000","REV_AT_EPOCH":"3567","INCLINATION":"53.2175","DECAY_DATE":null,"EPHEMERIS_TYPE":"0","NORAD_CAT_ID":"52482","REF_FRAME":"TEME","GP_ID":"221311815","MEAN_MOTION":"15.08837385","ELEMENT_SET_NO":"999","APOAPSIS":"541.457","ECCENTRICITY":"0.00024620","MEAN_ANOMALY":"323.0650","OBJECT_NAME":"STARLINK-3813","LAUNCH_DATE":"2022-05-06","SITE":"AFETR","SEMIMAJOR_AXIS":"6917.888","OBJECT_ID":"2022-049AH","CLASSIFICATION_TYPE":"U","TLE_LINE2":"2 52482  53.2175 268.7969 0002462  37.0512 323.0650 15.08837385 35673","MEAN_MOTION_DOT":"0.00000849","TLE_LINE1":"1 52482U 22049AH  22358.05201231  .00000849  00000-0  71459-4 0  9993","COUNTRY_CODE":"US","RCS_SIZE":"LARGE","EPOCH":"2022-12-24T01:14:53.863584","OBJECT_TYPE":"PAYLOAD","PERIAPSIS":"538.050","FILE":"3720616"},{"BSTAR":"0.00011673000000","PERIOD":"95.438","TIME_SYSTEM":"UTC","CENTER_NAME":"EARTH","RA_OF_ASC_NODE":"268.7494","ARG_OF_PERICENTER":"38.7599","MEAN_MOTION_DDOT":"0.0000000000000","MEAN_ELEMENT_THEORY":"SGP4","REV_AT_EPOCH":"3567","INCLINATION":"53.2170","DECAY_DATE":null,"REF_FRAME":"TEME","NORAD_CAT_ID":"52483","EPHEMERIS_TYPE":"0","GP_ID":"221312061","MEAN_MOTION":"15.08834826","ELEMENT_SET_NO":"999","ECCENTRICITY":"0.00024250","APOAPSIS":"541.439","MEAN_ANOMALY":"321.3566","LAUNCH_DATE":"2022-05-06","OBJECT_NAME":"STARLINK-3875","SEMIMAJOR_AXIS":"6917.896","SITE":"AFETR","OBJECT_ID":"2022-049AJ","CLASSIFICATION_TYPE":"U","TLE_LINE2":"2 52483  53.2170 268.7494 0002425  38.7599 321.3566 15.08834826 35678","MEAN_MOTION_DOT":"0.00001570","TLE_LINE1":"1 52483U 22049AJ  22358.06305967  .00001570  00000-0  11673-3 0  9999","RCS_SIZE":"LARGE","EPOCH":"2022-12-24T01:30:48.355488","COUNTRY_CODE":"US","OBJECT_TYPE":"PAYLOAD","PERIAPSIS":"538.084","FILE":"3720616"}];
